[{"OBJECT_NAME":"STARLINK-2095","OBJECT_ID":"2021-012BM","EPOCH":"2026-03-10T00:00:02.999808","MEAN_MOTION":15.74200805,"ECCENTRICITY":0.00059989,"INCLINATION":53.0265,"RA_OF_ASC_NODE":345.7098,"ARG_OF_PERICENTER":141.0946,"MEAN_ANOMALY":123.1256,"EPHEMERIS_TYPE":0,"CLASSIFICATION_TYPE":"U","NORAD_CAT_ID":47679,"ELEMENT_SET_NO":999,"REV_AT_EPOCH":596,"BSTAR":0.0014953733,"MEAN_MOTION_DOT":0.00224612,"MEAN_MOTION_DDOT":0},{"OBJECT_NAME":"STARLINK-35725","OBJECT_ID":"2026-016E","EPOCH":"2026-03-09T17:08:39.476256","MEAN_MOTION":15.75189465,"ECCENTRICITY":0.00010963,"INCLINATION":97.2845,"RA_OF_ASC_NODE":129.1483,"ARG_OF_PERICENTER":109.3056,"MEAN_ANOMALY":250.8328,"EPHEMERIS_TYPE":0,"CLASSIFICATION_TYPE":"U","NORAD_CAT_ID":67565,"ELEMENT_SET_NO":999,"REV_AT_EPOCH":680,"BSTAR":0.0018625049,"MEAN_MOTION_DOT":0.00287222,"MEAN_MOTION_DDOT":0}]
